[
    {
        "CCSDS_OMM_VERS": "3.0",
        "COMMENT": "GENERATED VIA SPACE-TRACK.ORG API",
        "CREATION_DATE": "2025-05-04T06:36:19",
        "ORIGINATOR": "18 SPCS",
        "OBJECT_NAME": "BEIDOU 4",
        "OBJECT_ID": "2010-024A",
        "CENTER_NAME": "EARTH",
        "REF_FRAME": "TEME",
        "TIME_SYSTEM": "UTC",
        "MEAN_ELEMENT_THEORY": "SGP4",
        "EPOCH": "2025-05-03T23:37:42.858912",
        "MEAN_MOTION": "1.00272484",
        "ECCENTRICITY": "0.00088370",
        "INCLINATION": "3.5510",
        "RA_OF_ASC_NODE": "62.3978",
        "ARG_OF_PERICENTER": "337.1459",
        "MEAN_ANOMALY": "256.6444",
        "EPHEMERIS_TYPE": "0",
        "CLASSIFICATION_TYPE": "U",
        "NORAD_CAT_ID": "36590",
        "ELEMENT_SET_NO": "999",
        "REV_AT_EPOCH": "5467",
        "BSTAR": "0.00000000000000",
        "MEAN_MOTION_DOT": "-0.00000144",
        "MEAN_MOTION_DDOT": "0.0000000000000",
        "SEMIMAJOR_AXIS": "42164.536",
        "PERIOD": "1436.087",
        "APOAPSIS": "35823.662",
        "PERIAPSIS": "35749.140",
        "OBJECT_TYPE": "PAYLOAD",
        "RCS_SIZE": "LARGE",
        "COUNTRY_CODE": "PRC",
        "LAUNCH_DATE": "2010-06-02",
        "SITE": "XSC",
        "DECAY_DATE": null,
        "FILE": "4718444",
        "GP_ID": "286814006",
        "TLE_LINE0": "0 BEIDOU 4",
        "TLE_LINE1": "1 36590U 10024A   25123.98452383 -.00000144  00000-0  00000+0 0  9994",
        "TLE_LINE2": "2 36590   3.5510  62.3978 0008837 337.1459 256.6444  1.00272484 54673"
    }
]